id,provinceshortname,provincename,cityname,cityshortname,parentid,leveltype,citycode,zipcode,mergername,lng,lat,citypinyin,cityshortpinyin,provincepinyin
513200,四川省,四川,阿坝藏族羌族自治州,阿坝,510000,2,837,624000,"中国,四川省,阿坝藏族羌族自治州",102.221,31.8998,abacangzuqiangzuzizhizhou,Aba,Sichuan
652900,新疆维吾尔自治区,新疆,阿克苏地区,阿克苏,650000,2,997,843000,"中国,新疆维吾尔自治区,阿克苏地区",80.2651,41.1707,akesudiqu,Aksu,Xinjiang
152900,内蒙古自治区,内蒙古,阿拉善盟,阿拉善盟,150000,2,483,750306,"中国,内蒙古自治区,阿拉善盟",105.706,38.8448,alashanmeng,Alxa,Inner Mongolia
654300,新疆维吾尔自治区,新疆,阿勒泰地区,阿勒泰,650000,2,906,836500,"中国,新疆维吾尔自治区,阿勒泰地区",88.1396,47.8484,aletaidiqu,Altay,Xinjiang
542500,西藏自治区,西藏,阿里地区,阿里,540000,2,897,859000,"中国,西藏自治区,阿里地区",80.1055,32.5032,alidiqu,Ngari,Tibet
610900,陕西省,陕西,安康市,安康,610000,2,915,725000,"中国,陕西省,安康市",109.029,32.6903,ankangshi,Ankang,Shaanxi
340800,安徽省,安徽,安庆市,安庆,340000,2,556,246001,"中国,安徽省,安庆市",117.054,30.5248,anqingshi,Anqing,Anhui
210300,辽宁省,辽宁,鞍山市,鞍山,210000,2,412,114001,"中国,辽宁省,鞍山市",122.996,41.1106,anshanshi,Anshan,Liaoning
520400,贵州省,贵州,安顺市,安顺,520000,2,853,561000,"中国,贵州省,安顺市",105.932,26.2455,anshunshi,Anshun,Guizhou
410500,河南省,河南,安阳市,安阳,410000,2,372,455000,"中国,河南省,安阳市",114.352,36.1034,anyangshi,Anyang,Henan
820100,澳门特别行政区,澳门,澳门半岛,澳门半岛,820000,2,853,999078,"中国,澳门特别行政区,澳门半岛",113.549,22.1988,aomenbandao,MacauPeninsula,Macau
220800,吉林省,吉林,白城市,白城,220000,2,436,137000,"中国,吉林省,白城市",122.841,45.619,baichengshi,Baicheng,Jilin
451000,广西省,广西,百色市,百色,450000,2,776,533000,"中国,广西壮族自治区,百色市",106.616,23.8977,baiseshi,Baise,Guangxi
220600,吉林省,吉林,白山市,白山,220000,2,439,134300,"中国,吉林省,白山市",126.428,41.9425,baishanshi,Baishan,Jilin
620400,甘肃省,甘肃,白银市,白银,620000,2,943,730900,"中国,甘肃省,白银市",104.174,36.5457,baiyinshi,Baiyin,Gansu
340300,安徽省,安徽,蚌埠市,蚌埠,340000,2,552,233000,"中国,安徽省,蚌埠市",117.362,32.934,bangbushi,Bengbu,Anhui
130600,河北省,河北,保定市,保定,130000,2,312,71052,"中国,河北省,保定市",115.482,38.8677,baodingshi,Baoding,Hebei
610300,陕西省,陕西,宝鸡市,宝鸡,610000,2,917,721000,"中国,陕西省,宝鸡市",107.145,34.3693,baojishi,Baoji,Shaanxi
530500,云南省,云南,保山市,保山,530000,2,875,678000,"中国,云南省,保山市",99.1671,25.1118,baoshanshi,Baoshan,Yunnan
150200,内蒙古自治区,内蒙古,包头市,包头,150000,2,472,14025,"中国,内蒙古自治区,包头市",109.84,40.6582,baotoushi,Baotou,Inner Mongolia
150800,内蒙古自治区,内蒙古,巴彦淖尔市,巴彦淖尔,150000,2,478,15001,"中国,内蒙古自治区,巴彦淖尔市",107.417,40.7574,bayannaoershi,Bayan Nur,Inner Mongolia
652800,新疆维吾尔自治区,新疆,巴音郭楞蒙古自治州,巴音郭楞,650000,2,996,841000,"中国,新疆维吾尔自治区,巴音郭楞蒙古自治州",86.151,41.7686,bayinguolengmengguzizhizhou,Bayingol,Xinjiang
511900,四川省,四川,巴中市,巴中,510000,2,827,636000,"中国,四川省,巴中市",106.754,31.8588,bazhongshi,Bazhong,Sichuan
450500,广西省,广西,北海市,北海,450000,2,779,536000,"中国,广西壮族自治区,北海市",109.119,21.4733,beihaishi,Beihai,Guangxi
110100,北京市,北京,北京市,北京,110000,2,10,100000,"中国,北京,北京市",116.405,39.905,beijingshi,Beijing,Beijing
110100,北京市,北京,北京市,北京,110000,2,10,100000,"中国,北京,北京市",116.405,39.905,beijingshi,Beijing Peking,Beijing Peking
210500,辽宁省,辽宁,本溪市,本溪,210000,2,414,117000,"中国,辽宁省,本溪市",123.771,41.2979,benxishi,Benxi,Liaoning
520500,贵州省,贵州,毕节市,毕节,520000,2,857,551700,"中国,贵州省,毕节市",105.285,27.3017,bijieshi,Bijie,Guizhou
371600,山东省,山东,滨州市,滨州,370000,2,543,256619,"中国,山东省,滨州市",118.017,37.3835,binzhoushi,Binzhou,Shandong
652700,新疆维吾尔自治区,新疆,博尔塔拉蒙古自治州,博尔塔拉,650000,2,909,833400,"中国,新疆维吾尔自治区,博尔塔拉蒙古自治州",82.0748,44.9033,boertalamengguzizhizhou,Bortala,Xinjiang
652700A,新疆维吾尔自治区,新疆,博尔塔拉蒙古自治州,博尔塔拉,650000,2,909,833400,"中国,新疆维吾尔自治区,博尔塔拉蒙古自治州",82.0748,44.9033,BORTALASHI,Bortala,Xinjiang
341600,安徽省,安徽,亳州市,亳州,340000,2,558,236802,"中国,安徽省,亳州市",115.783,33.8693,bozhoushi,Bozhou,Anhui
130900,河北省,河北,沧州市,沧州,130000,2,317,61001,"中国,河北省,沧州市",116.857,38.3106,cangzhoushi,Cangzhou,Hebei
220100,吉林省,吉林,长春市,长春,220000,2,431,130022,"中国,吉林省,长春市",125.325,43.8868,changchunshi,Changchun,Jilin
430700,湖南省,湖南,常德市,常德,430000,2,736,415000,"中国,湖南省,常德市",111.691,29.0402,changdeshi,Changde,Hunan
540300,西藏自治区,西藏,昌都市,昌都,540000,2,895,854000,"中国,西藏自治区,昌都市",97.1785,31.1369,changdoushi,Qamdo,Tibet
652300,新疆维吾尔自治区,新疆,昌吉回族自治州,昌吉,650000,2,994,831100,"中国,新疆维吾尔自治区,昌吉回族自治州",87.304,44.0146,changjihuizuzizhizhou,Changji,Xinjiang
430100,湖南省,湖南,长沙市,长沙,430000,2,731,410005,"中国,湖南省,长沙市",112.982,28.1941,changshashi,Changsha,Hunan
140400,山西省,山西,长治市,长治,140000,2,355,46000,"中国,山西省,长治市",113.114,36.1911,changzhishi,Changzhi,Shanxi
320400,江苏省,江苏,常州市,常州,320000,2,519,213000,"中国,江苏省,常州市",119.947,31.7728,changzhoushi,Changzhou,Jiangsu
211300,辽宁省,辽宁,朝阳市,朝阳,210000,2,421,122000,"中国,辽宁省,朝阳市",120.451,41.5768,chaoyangshi,Chaoyang,Liaoning
445100,广东省,广东,潮州市,潮州,440000,2,768,521000,"中国,广东省,潮州市",116.632,23.6617,chaozhoushi,Chaozhou,Guangdong
130800,河北省,河北,承德市,承德,130000,2,314,67000,"中国,河北省,承德市",117.939,40.9762,chengdeshi,Chengde,Hebei
510100,四川省,四川,成都市,成都,510000,2,28,610015,"中国,四川省,成都市",104.066,30.6595,chengdoushi,Chengdu,Sichuan
431000,湖南省,湖南,郴州市,郴州,430000,2,735,423000,"中国,湖南省,郴州市",113.032,25.7936,chenzhoushi,Chenzhou,Hunan
150400,内蒙古自治区,内蒙古,赤峰市,赤峰,150000,2,476,24000,"中国,内蒙古自治区,赤峰市",118.957,42.2753,chifengshi,Chifeng,Inner Mongolia
341700,安徽省,安徽,池州市,池州,340000,2,566,247100,"中国,安徽省,池州市",117.489,30.656,chizhoushi,Chizhou,Anhui
451400,广西省,广西,崇左市,崇左,450000,2,771,532299,"中国,广西壮族自治区,崇左市",107.354,22.4041,chongzuoshi,Chongzuo,Guangxi
532300,云南省,云南,楚雄彝族自治州,楚雄,530000,2,878,675000,"中国,云南省,楚雄彝族自治州",101.546,25.042,chuxiongyizuzizhizhou,Chuxiong,Yunnan
341100,安徽省,安徽,滁州市,滁州,340000,2,550,239000,"中国,安徽省,滁州市",118.316,32.3036,chuzhoushi,Chuzhou,Anhui
210200,辽宁省,辽宁,大连市,大连,210000,2,411,116011,"中国,辽宁省,大连市",121.619,38.9146,dalianshi,Dalian,Liaoning
532900,云南省,云南,大理白族自治州,大理,530000,2,872,671000,"中国,云南省,大理白族自治州",100.24,25.5928,dalibaizuzizhizhou,Dali,Yunnan
210600,辽宁省,辽宁,丹东市,丹东,210000,2,415,118000,"中国,辽宁省,丹东市",124.383,40.1243,dandongshi,Dandong,Liaoning
820200,澳门特别行政区,澳门,氹仔岛,氹仔岛,820000,2,853,999078,"中国,澳门特别行政区,氹仔岛",113.578,22.1568,dangzidao,Taipa,Macau
230600,黑龙江省,黑龙江,大庆市,大庆,230000,2,459,163000,"中国,黑龙江省,大庆市",125.113,46.5907,daqingshi,Daqing,Heilongjiang
140200,山西省,山西,大同市,大同,140000,2,352,37008,"中国,山西省,大同市",113.295,40.0903,datongshi,Datong,Shanxi
232700,黑龙江省,黑龙江,大兴安岭地区,大兴安岭,230000,2,457,165000,"中国,黑龙江省,大兴安岭地区",124.712,52.3353,daxinganlingdiqu,DaXingAnLing,Heilongjiang
511700,四川省,四川,达州市,达州,510000,2,818,635000,"中国,四川省,达州市",107.502,31.2095,dazhoushi,Dazhou,Sichuan
533100,云南省,云南,德宏傣族景颇族自治州,德宏,530000,2,692,678400,"中国,云南省,德宏傣族景颇族自治州",98.5784,24.4367,dehongdaizujingpozuzizhizhou,Dehong,Yunnan
510600,四川省,四川,德阳市,德阳,510000,2,838,618000,"中国,四川省,德阳市",104.399,31.128,deyangshi,Deyang,Sichuan
371400,山东省,山东,德州市,德州,370000,2,534,253000,"中国,山东省,德州市",116.307,37.454,dezhoushi,Dezhou,Shandong
621100,甘肃省,甘肃,定西市,定西,620000,2,932,743000,"中国,甘肃省,定西市",104.626,35.5796,dingxishi,Dingxi,Gansu
533400,云南省,云南,迪庆藏族自治州,迪庆,530000,2,887,674400,"中国,云南省,迪庆藏族自治州",99.7065,27.8269,diqingcangzuzizhizhou,Deqen,Yunnan
441900,广东省,广东,东莞市,东莞,440000,2,769,523888,"中国,广东省,东莞市",113.76,23.0489,dongwanshi,Dongguan,Guangdong
370500,山东省,山东,东营市,东营,370000,2,546,257093,"中国,山东省,东营市",118.496,37.4613,dongyingshi,Dongying,Shandong
150600,内蒙古自治区,内蒙古,鄂尔多斯市,鄂尔多斯,150000,2,477,17004,"中国,内蒙古自治区,鄂尔多斯市",109.99,39.8172,eerduosishi,Ordos,Inner Mongolia
422800,湖北省,湖北,恩施土家族苗族自治州,恩施,420000,2,718,445000,"中国,湖北省,恩施土家族苗族自治州",109.487,30.2831,enshitujiazumiaozuzizhizhou,Enshi,Hubei
420700,湖北省,湖北,鄂州市,鄂州,420000,2,711,436000,"中国,湖北省,鄂州市",114.891,30.3965,ezhoushi,Ezhou,Hubei
450600,广西省,广西,防城港市,防城港,450000,2,770,538001,"中国,广西壮族自治区,防城港市",108.345,21.6146,fangchenggangshi,Fangchenggang,Guangxi
440600,广东省,广东,佛山市,佛山,440000,2,757,528000,"中国,广东省,佛山市",113.123,23.0288,foshanshi,Foshan,Guangdong
210400,辽宁省,辽宁,抚顺市,抚顺,210000,2,24,113008,"中国,辽宁省,抚顺市",123.921,41.876,fushunshi,Fushun,Liaoning
210900,辽宁省,辽宁,阜新市,阜新,210000,2,418,123000,"中国,辽宁省,阜新市",121.649,42.0118,fuxinshi,Fuxin,Liaoning
341200,安徽省,安徽,阜阳市,阜阳,340000,2,558,236033,"中国,安徽省,阜阳市",115.82,32.897,fuyangshi,Fuyang,Anhui
350100,福建省,福建,福州市,福州,350000,2,591,350001,"中国,福建省,福州市",119.306,26.0753,fuzhoushi,Fuzhou,Fujian
361000,江西省,江西,抚州市,抚州,360000,2,794,344000,"中国,江西省,抚州市",116.358,27.9839,fuzhoushi,Fuzhou,Jiangxi
623000,甘肃省,甘肃,甘南藏族自治州,甘南,620000,2,941,747000,"中国,甘肃省,甘南藏族自治州",102.911,34.9864,gannancangzuzizhizhou,Gannan,Gansu
360700,江西省,江西,赣州市,赣州,360000,2,797,341000,"中国,江西省,赣州市",114.94,25.851,ganzhoushi,Ganzhou,Jiangxi
513300,四川省,四川,甘孜藏族自治州,甘孜,510000,2,836,626000,"中国,四川省,甘孜藏族自治州",101.964,30.0507,ganzicangzuzizhizhou,Garze,Sichuan
710200,台湾,台湾,高雄市,高雄,710000,2,7,8,"中国,台湾,高雄市",120.312,22.6209,gaoxiongshi,Kaohsiung,Taiwan
511600,四川省,四川,广安市,广安,510000,2,826,638000,"中国,四川省,广安市",106.633,30.4564,guanganshi,Guangan,Sichuan
511600,四川省,四川,广安市,广安,510000,2,826,638000,"中国,四川省,广安市",106.633,30.4564,guanganshi,Guang'an,Sichuan
510800,四川省,四川,广元市,广元,510000,2,839,628000,"中国,四川省,广元市",105.83,32.4337,guangyuanshi,Guangyuan,Sichuan
440100,广东省,广东,广州市,广州,440000,2,20,510032,"中国,广东省,广州市",113.281,23.1252,guangzhoushi,Guangzhou,Guangdong
450800,广西省,广西,贵港市,贵港,450000,2,775,537100,"中国,广西壮族自治区,贵港市",109.602,23.0936,guigangshi,Guigang,Guangxi
450300,广西省,广西,桂林市,桂林,450000,2,773,541100,"中国,广西壮族自治区,桂林市",110.299,25.2742,guilinshi,Guilin,Guangxi
520100,贵州省,贵州,贵阳市,贵阳,520000,2,851,550001,"中国,贵州省,贵阳市",106.713,26.5783,guiyangshi,Guiyang,Guizhou
632600,青海省,青海,果洛藏族自治州,果洛,630000,2,975,814000,"中国,青海省,果洛藏族自治州",100.242,34.4736,guoluocangzuzizhizhou,Golog,Qinghai
640400,宁夏回族自治区,宁夏,固原市,固原,640000,2,954,756000,"中国,宁夏回族自治区,固原市",106.285,36.0046,guyuanshi,Guyuan,Ningxia
230100,黑龙江省,黑龙江,哈尔滨市,哈尔滨,230000,2,451,150010,"中国,黑龙江省,哈尔滨市",126.642,45.757,haerbinshi,Harbin,Heilongjiang
632200,青海省,青海,海北藏族自治州,海北,630000,2,970,812200,"中国,青海省,海北藏族自治州",100.901,36.9594,haibeicangzuzizhizhou,Haibei,Qinghai
630200,青海省,青海,海东市,海东,630000,2,972,810700,"中国,青海省,海东市",102.103,36.5029,haidongshi,Haidong,Qinghai
460100,海南省,海南,海口市,海口,460000,2,898,570000,"中国,海南省,海口市",110.331,20.032,haikoushi,Haikou,Hainan
632500,青海省,青海,海南藏族自治州,海南,630000,2,974,813000,"中国,青海省,海南藏族自治州",100.62,36.2804,hainancangzuzizhizhou,Hainan,Qinghai
632800,青海省,青海,海西蒙古族藏族自治州,海西,630000,2,977,817000,"中国,青海省,海西蒙古族藏族自治州",97.3708,37.3747,haiximengguzucangzuzizhizhou,Haixi,Qinghai
652200,新疆维吾尔自治区,新疆,哈密地区,哈密,650000,2,902,839000,"中国,新疆维吾尔自治区,哈密地区",93.5132,42.8332,hamidiqu,Hami,Xinjiang
130400,河北省,河北,邯郸市,邯郸,130000,2,310,56002,"中国,河北省,邯郸市",114.491,36.6123,handanshi,Handan,Hebei
330100,浙江省,浙江,杭州市,杭州,330000,2,571,310026,"中国,浙江省,杭州市",120.154,30.2875,hangzhoushi,Hangzhou,Zhejiang
610700,陕西省,陕西,汉中市,汉中,610000,2,916,723000,"中国,陕西省,汉中市",107.029,33.0777,hanzhongshi,Hanzhong,Shaanxi
410600,河南省,河南,鹤壁市,鹤壁,410000,2,392,458030,"中国,河南省,鹤壁市",114.295,35.7482,hebishi,Hebi,Henan
451200,广西省,广西,河池市,河池,450000,2,778,547000,"中国,广西壮族自治区,河池市",108.062,24.6959,hechishi,Hechi,Guangxi
340100,安徽省,安徽,合肥市,合肥,340000,2,551,230001,"中国,安徽省,合肥市",117.283,31.8612,hefeishi,Hefei,Anhui
230400,黑龙江省,黑龙江,鹤岗市,鹤岗,230000,2,468,154100,"中国,黑龙江省,鹤岗市",130.277,47.3321,hegangshi,Hegang,Heilongjiang
231100,黑龙江省,黑龙江,黑河市,黑河,230000,2,456,164300,"中国,黑龙江省,黑河市",127.499,50.2496,heiheshi,Heihe,Heilongjiang
131100,河北省,河北,衡水市,衡水,130000,2,318,53000,"中国,河北省,衡水市",115.666,37.7351,hengshuishi,Hengshui,Hebei
430400,湖南省,湖南,衡阳市,衡阳,430000,2,734,421001,"中国,湖南省,衡阳市",112.608,26.9004,hengyangshi,Hengyang,Hunan
653200,新疆维吾尔自治区,新疆,和田地区,和田,650000,2,903,848000,"中国,新疆维吾尔自治区,和田地区",79.9253,37.1107,hetiandiqu,Hotan,Xinjiang
441600,广东省,广东,河源市,河源,440000,2,762,517000,"中国,广东省,河源市",114.698,23.7463,heyuanshi,Heyuan,Guangdong
371700,山东省,山东,菏泽市,菏泽,370000,2,530,274020,"中国,山东省,菏泽市",115.469,35.2465,hezeshi,Heze,Shandong
451100,广西省,广西,贺州市,贺州,450000,2,774,542800,"中国,广西壮族自治区,贺州市",111.552,24.4141,hezhoushi,Hezhou,Guangxi
532500,云南省,云南,红河哈尼族彝族自治州,红河,530000,2,873,661400,"中国,云南省,红河哈尼族彝族自治州",103.384,23.3668,honghehanizuyizuzizhizhou,Honghe,Yunnan
320800,江苏省,江苏,淮安市,淮安,320000,2,517,223001,"中国,江苏省,淮安市",119.021,33.5975,huaianshi,Huaian,Jiangsu
320800,江苏省,江苏,淮安市,淮安,320000,2,517,223001,"中国,江苏省,淮安市",119.021,33.5975,huaianshi,Huai'an,Jiangsu
340600,安徽省,安徽,淮北市,淮北,340000,2,561,235000,"中国,安徽省,淮北市",116.795,33.9717,huaibeishi,Huaibei,Anhui
431200,湖南省,湖南,怀化市,怀化,430000,2,745,418000,"中国,湖南省,怀化市",109.978,27.5501,huaihuashi,Huaihua,Hunan
340400,安徽省,安徽,淮南市,淮南,340000,2,554,232001,"中国,安徽省,淮南市",117.025,32.6459,huainanshi,Huainan,Anhui
713500,台湾,台湾,花莲县,花莲,710000,2,3,9,"中国,台湾,花莲县",121.3,23.83,hualianxian,Hualien,Taiwan
421100,湖北省,湖北,黄冈市,黄冈,420000,2,713,438000,"中国,湖北省,黄冈市",114.879,30.4477,huanggangshi,Huanggang,Hubei
632300,青海省,青海,黄南藏族自治州,黄南,630000,2,973,811300,"中国,青海省,黄南藏族自治州",102.02,35.5177,huangnancangzuzizhizhou,Huangnan,Qinghai
341000,安徽省,安徽,黄山市,黄山,340000,2,559,245000,"中国,安徽省,黄山市",118.317,29.7092,huangshanshi,Huangshan,Anhui
420200,湖北省,湖北,黄石市,黄石,420000,2,714,435003,"中国,湖北省,黄石市",115.077,30.2201,huangshishi,Huangshi,Hubei
150100,内蒙古自治区,内蒙古,呼和浩特市,呼和浩特,150000,2,471,10000,"中国,内蒙古自治区,呼和浩特市",111.671,40.8183,huhehaoteshi,Hohhot,Inner Mongolia
441300,广东省,广东,惠州市,惠州,440000,2,752,516000,"中国,广东省,惠州市",114.413,23.0794,huizhoushi,Huizhou,Guangdong
211400,辽宁省,辽宁,葫芦岛市,葫芦岛,210000,2,429,125000,"中国,辽宁省,葫芦岛市",120.856,40.7556,huludaoshi,Huludao,Liaoning
150700,内蒙古自治区,内蒙古,呼伦贝尔市,呼伦贝尔,150000,2,470,21008,"中国,内蒙古自治区,呼伦贝尔市",119.758,49.2153,hulunbeiershi,Hulunbuir,Inner Mongolia
330500,浙江省,浙江,湖州市,湖州,330000,2,572,313000,"中国,浙江省,湖州市",120.102,30.8672,huzhoushi,Huzhou,Zhejiang
654000A,新疆维吾尔自治区,新疆,伊犁哈萨克自治州,伊犁,650000,4,999,835100,"中国,新疆维吾尔自治区,伊犁哈萨克自治州",81.3179,43.9219,ILIHASAKEZIZHIZHOU,Ili,Xinjiang
230800,黑龙江省,黑龙江,佳木斯市,佳木斯,230000,2,454,154002,"中国,黑龙江省,佳木斯市",130.362,46.8096,jiamusishi,Jiamusi,Heilongjiang
440700,广东省,广东,江门市,江门,440000,2,750,529000,"中国,广东省,江门市",113.095,22.5904,jiangmenshi,Jiangmen,Guangdong
360800,江西省,江西,吉安市,吉安,360000,2,796,343000,"中国,江西省,吉安市",114.986,27.1117,jianshi,jian,Jiangxi
360800,江西省,江西,吉安市,吉安,360000,2,796,343000,"中国,江西省,吉安市",114.986,27.1117,jianshi,Ji'an,Jiangxi
410800,河南省,河南,焦作市,焦作,410000,2,391,454002,"中国,河南省,焦作市",113.238,35.239,jiaozuoshi,Jiaozuo,Henan
330400,浙江省,浙江,嘉兴市,嘉兴,330000,2,573,314000,"中国,浙江省,嘉兴市",120.751,30.7627,jiaxingshi,Jiaxing,Zhejiang
710700,台湾,台湾,嘉义市,嘉义,710000,2,5,6,"中国,台湾,嘉义市",120.453,23.4816,jiayishi,Chiayi,Taiwan
713000,台湾,台湾,嘉义县,嘉义,710000,2,5,6,"中国,台湾,嘉义县",120.3,23.5,jiayixian,Chiayi,Taiwan
620200,甘肃省,甘肃,嘉峪关市,嘉峪关,620000,2,937,735100,"中国,甘肃省,嘉峪关市",98.2773,39.7865,jiayuguanshi,Jiayuguan,Gansu
445200,广东省,广东,揭阳市,揭阳,440000,2,633,522000,"中国,广东省,揭阳市",116.356,23.5438,jieyangshi,Jieyang,Guangdong
220200,吉林省,吉林,吉林市,吉林,220000,2,432,132011,"中国,吉林省,吉林市",126.553,43.8436,jilinshi,Jilin,Jilin
710300,台湾,台湾,基隆市,基隆,710000,2,2,2,"中国,台湾,基隆市",121.746,25.1307,jilongshi,Keelung,Taiwan
370100,山东省,山东,济南市,济南,370000,2,531,250001,"中国,山东省,济南市",117.001,36.6758,jinanshi,Jinan,Shandong
620300,甘肃省,甘肃,金昌市,金昌,620000,2,935,737100,"中国,甘肃省,金昌市",102.188,38.5142,jinchangshi,Jinchang,Gansu
140500,山西省,山西,晋城市,晋城,140000,2,356,48000,"中国,山西省,晋城市",112.851,35.4976,jinchengshi,Jincheng,Shanxi
360200,江西省,江西,景德镇市,景德镇,360000,2,798,333000,"中国,江西省,景德镇市",117.215,29.2926,jingdezhenshi,Jingdezhen,Jiangxi
420800,湖北省,湖北,荆门市,荆门,420000,2,724,448000,"中国,湖北省,荆门市",112.204,31.0354,jingmenshi,Jingmen,Hubei
421000,湖北省,湖北,荆州市,荆州,420000,2,716,434000,"中国,湖北省,荆州市",112.238,30.3269,jingzhoushi,Jingzhou,Hubei
330700,浙江省,浙江,金华市,金华,330000,2,579,321000,"中国,浙江省,金华市",119.65,29.0895,jinhuashi,Jinhua,Zhejiang
370800,山东省,山东,济宁市,济宁,370000,2,537,272119,"中国,山东省,济宁市",116.587,35.4154,jiningshi,Jining,Shandong
713700,台湾,台湾,金门县,金门,710000,2,82,8,"中国,台湾,金门县",118.317,24.4327,jinmenxian,Jinmen,Taiwan
211500,辽宁省,辽宁,金普新区,金普新区,210000,2,411,116100,"中国,辽宁省,金普新区",121.79,39.0555,jinpuxinqu,Jinpuxinqu,Liaoning
140700,山西省,山西,晋中市,晋中,140000,2,354,30600,"中国,山西省,晋中市",112.736,37.6965,jinzhongshi,Jinzhong,Shanxi
210700,辽宁省,辽宁,锦州市,锦州,210000,2,416,121000,"中国,辽宁省,锦州市",121.136,41.1193,jinzhoushi,Jinzhou,Liaoning
360400,江西省,江西,九江市,九江,360000,2,792,332000,"中国,江西省,九江市",115.993,29.712,jiujiangshi,Jiujiang,Jiangxi
810200,香港特别行政区,香港,九龙,九龙,810000,2,852,999077,"中国,香港特别行政区,九龙",114.175,22.3271,jiulong,Kowloon,Hong Kong
620900,甘肃省,甘肃,酒泉市,酒泉,620000,2,937,735000,"中国,甘肃省,酒泉市",98.5108,39.744,jiuquanshi,Jiuquan,Gansu
230300,黑龙江省,黑龙江,鸡西市,鸡西,230000,2,467,158100,"中国,黑龙江省,鸡西市",130.976,45.3,jixishi,Jixi,Heilongjiang
410200,河南省,河南,开封市,开封,410000,2,378,475001,"中国,河南省,开封市",114.341,34.797,kaifengshi,Kaifeng,Henan
653100,新疆维吾尔自治区,新疆,喀什地区,喀什,650000,2,998,844000,"中国,新疆维吾尔自治区,喀什地区",75.9891,39.4677,kashidiqu,Kashgar,Xinjiang
650200,新疆维吾尔自治区,新疆,克拉玛依市,克拉玛依,650000,2,990,834000,"中国,新疆维吾尔自治区,克拉玛依市",84.8739,45.5959,kelamayishi,Karamay,Xinjiang
653000,新疆维吾尔自治区,新疆,克孜勒苏柯尔克孜自治州,克孜勒苏,650000,2,908,845350,"中国,新疆维吾尔自治区,克孜勒苏柯尔克孜自治州",76.1728,39.7134,kezilesukeerkezizizhizhou,Kizilsu,Xinjiang
530100,云南省,云南,昆明市,昆明,530000,2,871,650500,"中国,云南省,昆明市",102.712,25.0406,kunmingshi,Kunming,Yunnan
451300,广西省,广西,来宾市,来宾,450000,2,772,546100,"中国,广西壮族自治区,来宾市",109.23,23.7338,laibinshi,Laibin,Guangxi
371200,山东省,山东,莱芜市,莱芜,370000,2,634,271100,"中国,山东省,莱芜市",117.678,36.2144,laiwushi,Laiwu,Shandong
131000,河北省,河北,廊坊市,廊坊,130000,2,316,65000,"中国,河北省,廊坊市",116.714,39.5292,langfangshi,Langfang,Hebei
620100,甘肃省,甘肃,兰州市,兰州,620000,2,931,730030,"中国,甘肃省,兰州市",103.824,36.058,lanzhoushi,Lanzhou,Gansu
540100,西藏自治区,西藏,拉萨市,拉萨,540000,2,891,850000,"中国,西藏自治区,拉萨市",91.1322,29.6604,lasashi,Lhasa,Tibet
511100,四川省,四川,乐山市,乐山,510000,2,833,614000,"中国,四川省,乐山市",103.761,29.582,leshanshi,Leshan,Sichuan
500300,重庆市,重庆,两江新区,两江新区,500000,2,23,400000,"中国,重庆,两江新区",106.463,29.7292,liangjiangxinqu,Liangjiangxinqu,Chongqing
513400,四川省,四川,凉山彝族自治州,凉山,510000,2,834,615000,"中国,四川省,凉山彝族自治州",102.259,27.8868,liangshanyizuzizhizhou,Liangshan,Sichuan
713800,台湾,台湾,连江县,连江,710000,2,836,2,"中国,台湾,连江县",119.54,26.1974,lianjiangxian,Lienchiang,Taiwan
320700,江苏省,江苏,连云港市,连云港,320000,2,518,222002,"中国,江苏省,连云港市",119.179,34.6,lianyungangshi,Lianyungang,Jiangsu
371500,山东省,山东,聊城市,聊城,370000,2,635,252052,"中国,山东省,聊城市",115.98,36.456,liaochengshi,Liaocheng,Shandong
211000,辽宁省,辽宁,辽阳市,辽阳,210000,2,419,111000,"中国,辽宁省,辽阳市",123.182,41.2694,liaoyangshi,Liaoyang,Liaoning
220400,吉林省,吉林,辽源市,辽源,220000,2,437,136200,"中国,吉林省,辽源市",125.145,42.9027,liaoyuanshi,Liaoyuan,Jilin
530700,云南省,云南,丽江市,丽江,530000,2,888,674100,"中国,云南省,丽江市",100.233,26.8721,lijiangshi,Lijiang,Yunnan
530900,云南省,云南,临沧市,临沧,530000,2,883,677000,"中国,云南省,临沧市",100.087,23.8866,lincangshi,Lincang,Yunnan
141000,山西省,山西,临汾市,临汾,140000,2,357,41000,"中国,山西省,临汾市",111.518,36.0842,linfenshi,Linfen,Shanxi
622900,甘肃省,甘肃,临夏回族自治州,临夏,620000,2,930,731100,"中国,甘肃省,临夏回族自治州",103.212,35.5994,linxiahuizuzizhizhou,Linxia,Gansu
371300,山东省,山东,临沂市,临沂,370000,2,539,253000,"中国,山东省,临沂市",118.326,35.0653,linyishi,Linyi,Shandong
542600,西藏自治区,西藏,林芝地区,林芝,540000,2,894,850400,"中国,西藏自治区,林芝地区",94.3623,29.6547,linzhidiqu,Nyingchi,Tibet
331100,浙江省,浙江,丽水市,丽水,330000,2,578,323000,"中国,浙江省,丽水市",119.922,28.452,lishuishi,Lishui,Zhejiang
341500A,安徽省,安徽,六安市,六安,340000,2,564,237000,"中国,安徽省,六安市",116.508,31.7529,liuanshi,Luan,Anhui
341500,安徽省,安徽,六安市,六安,340000,2,564,237000,"中国,安徽省,六安市",116.508,31.7529,liuanshi,Lu'an,Anhui
520200,贵州省,贵州,六盘水市,六盘水,520000,2,858,553400,"中国,贵州省,六盘水市",104.847,26.5846,liupanshuishi,Liupanshui,Guizhou
450200,广西省,广西,柳州市,柳州,450000,2,772,545001,"中国,广西壮族自治区,柳州市",109.412,24.3146,liuzhoushi,Liuzhou,Guangxi
621200,甘肃省,甘肃,陇南市,陇南,620000,2,939,746000,"中国,甘肃省,陇南市",104.929,33.3886,longnanshi,Longnan,Gansu
350800,福建省,福建,龙岩市,龙岩,350000,2,597,364000,"中国,福建省,龙岩市",117.03,25.0916,longyanshi,Longyan,Fujian
431300,湖南省,湖南,娄底市,娄底,430000,2,738,417000,"中国,湖南省,娄底市",112.008,27.7281,loudishi,Loudi,Hunan
820300,澳门特别行政区,澳门,路环岛,路环岛,820000,2,853,999078,"中国,澳门特别行政区,路环岛",113.565,22.1162,luhuandao,Coloane,Macau
411100,河南省,河南,漯河市,漯河,410000,2,395,462000,"中国,河南省,漯河市",114.026,33.5759,luoheshi,Luohe,Henan
410300,河南省,河南,洛阳市,洛阳,410000,2,379,471000,"中国,河南省,洛阳市",112.434,34.663,luoyangshi,Luoyang,Henan
510500,四川省,四川,泸州市,泸州,510000,2,830,646000,"中国,四川省,泸州市",105.443,28.8891,luzhoushi,Luzhou,Sichuan
141100,山西省,山西,吕梁市,吕梁,140000,2,358,33000,"中国,山西省,吕梁市",111.134,37.5244,lvliangshi,Luliang,Shanxi
340500,安徽省,安徽,马鞍山市,马鞍山,340000,2,555,243001,"中国,安徽省,马鞍山市",118.508,31.6894,maanshanshi,Maanshan,Anhui
340500,安徽省,安徽,马鞍山市,马鞍山,340000,2,555,243001,"中国,安徽省,马鞍山市",118.508,31.6894,maanshanshi,Ma'anshan,Anhui
440900,广东省,广东,茂名市,茂名,440000,2,668,525000,"中国,广东省,茂名市",110.919,21.6598,maomingshi,Maoming,Guangdong
511400,四川省,四川,眉山市,眉山,510000,2,28,620020,"中国,四川省,眉山市",103.832,30.0483,meishanshi,Meishan,Sichuan
441400,广东省,广东,梅州市,梅州,440000,2,753,514021,"中国,广东省,梅州市",116.118,24.2991,meizhoushi,Meizhou,Guangdong
510700,四川省,四川,绵阳市,绵阳,510000,2,816,621000,"中国,四川省,绵阳市",104.742,31.464,mianyangshi,Mianyang,Sichuan
712500,台湾,台湾,苗栗县,苗栗,710000,2,37,3,"中国,台湾,苗栗县",120.75,24.5,miaolixian,Miaoli,Taiwan
231000,黑龙江省,黑龙江,牡丹江市,牡丹江,230000,2,453,157000,"中国,黑龙江省,牡丹江市",129.619,44.583,mudanjiangshi,Mudanjiang,Heilongjiang
511000,四川省,四川,内江市,内江,510000,2,832,641000,"中国,四川省,内江市",105.066,29.5871,najiangshi,Neijiang,Sichuan
360100,江西省,江西,南昌市,南昌,360000,2,791,330008,"中国,江西省,南昌市",115.892,28.6765,nanchangshi,Nanchang,Jiangxi
511300,四川省,四川,南充市,南充,510000,2,817,637000,"中国,四川省,南充市",106.083,30.7953,nanchongshi,Nanchong,Sichuan
320100,江苏省,江苏,南京市,南京,320000,2,25,210008,"中国,江苏省,南京市",118.767,32.0415,nanjingshi,nanjing,Jiangsu
320100,江苏省,江苏,南京市,南京,320000,2,25,210008,"中国,江苏省,南京市",118.767,32.0415,nanjinshi,nanjin,Jiangsu
450100,广西省,广西,南宁市,南宁,450000,2,771,530028,"中国,广西壮族自治区,南宁市",108.32,22.824,nanningshi,Nanning,Guangxi
350700,福建省,福建,南平市,南平,350000,2,599,353000,"中国,福建省,南平市",118.178,26.6356,nanpingshi,Nanping,Fujian
320600,江苏省,江苏,南通市,南通,320000,2,513,226001,"中国,江苏省,南通市",120.865,32.0162,nantongshi,Nantong,Jiangsu
712800,台湾,台湾,南投县,南投,710000,2,49,5,"中国,台湾,南投县",120.83,23.83,nantouxian,Nantou,Taiwan
411300,河南省,河南,南阳市,南阳,410000,2,377,473002,"中国,河南省,南阳市",112.541,32.9991,nanyangshi,Nanyang,Henan
542400,西藏自治区,西藏,那曲地区,那曲,540000,2,896,852000,"中国,西藏自治区,那曲地区",92.0602,31.476,naqudiqu,Nagqu,Tibet
330200,浙江省,浙江,宁波市,宁波,330000,2,574,315000,"中国,浙江省,宁波市",121.55,29.8684,ningboshi,Ningbo,Zhejiang
350900,福建省,福建,宁德市,宁德,350000,2,593,352100,"中国,福建省,宁德市",119.527,26.6592,ningdeshi,Ningde,Fujian
533300,云南省,云南,怒江傈僳族自治州,怒江,530000,2,886,673100,"中国,云南省,怒江傈僳族自治州",98.8543,25.8509,nujianglisuzuzizhizhou,Nujiang,Yunnan
211100,辽宁省,辽宁,盘锦市,盘锦,210000,2,427,124010,"中国,辽宁省,盘锦市",122.07,41.1245,panjinshi,Panjin,Liaoning
510400,四川省,四川,攀枝花市,攀枝花,510000,2,812,617000,"中国,四川省,攀枝花市",101.716,26.5804,panzhihuashi,Panzhihua,Sichuan
713600,台湾,台湾,澎湖县,澎湖,710000,2,6,8,"中国,台湾,澎湖县",119.566,23.5697,penghuxian,Penghu,Taiwan
410400,河南省,河南,平顶山市,平顶山,410000,2,375,467000,"中国,河南省,平顶山市",113.308,33.7352,pingdingshanshi,Pingdingshan,Henan
713300,台湾,台湾,屏东县,屏东,710000,2,8,9,"中国,台湾,屏东县",120.488,22.6828,pingdongxian,Pingtung,Taiwan
620800,甘肃省,甘肃,平凉市,平凉,620000,2,933,744000,"中国,甘肃省,平凉市",106.685,35.5428,pingliangshi,Pingliang,Gansu
360300,江西省,江西,萍乡市,萍乡,360000,2,799,337000,"中国,江西省,萍乡市",113.852,27.6229,pingxiangshi,Pingxiang,Jiangxi
530800,云南省,云南,普洱市,普洱,530000,2,879,665000,"中国,云南省,普洱市",100.972,22.7773,puershi,Puer,Yunnan
530800,云南省,云南,普洱市,普洱,530000,2,879,665000,"中国,云南省,普洱市",100.972,22.7773,puershi,Pu'er,Yunnan
350300,福建省,福建,莆田市,莆田,350000,2,594,351100,"中国,福建省,莆田市",119.008,25.431,putianshi,Putian,Fujian
410900,河南省,河南,濮阳市,濮阳,410000,2,393,457000,"中国,河南省,濮阳市",115.041,35.7682,puyangshi,Puyang,Henan
522600,贵州省,贵州,黔东南苗族侗族自治州,黔东南,520000,2,855,556000,"中国,贵州省,黔东南苗族侗族自治州",107.977,26.5834,qiandongnanmiaozudongzuzizhizhou,Qiandongnan,Guizhou
522700,贵州省,贵州,黔南布依族苗族自治州,黔南,520000,2,854,558000,"中国,贵州省,黔南布依族苗族自治州",107.517,26.2582,qiannanbuyizumiaozuzizhizhou,Qiannan,Guizhou
522300,贵州省,贵州,黔西南布依族苗族自治州,黔西南,520000,2,859,562400,"中国,贵州省,黔西南布依族苗族自治州",104.898,25.0881,qianxinanbuyizumiaozuzizhizhou,Qianxinan,Guizhou
370200,山东省,山东,青岛市,青岛,370000,2,532,266001,"中国,山东省,青岛市",120.37,36.0944,qingdaoshi,Qingdao,Shandong
621000,甘肃省,甘肃,庆阳市,庆阳,620000,2,934,745000,"中国,甘肃省,庆阳市",107.638,35.7342,qingyangshi,Qingyang,Gansu
441800,广东省,广东,清远市,清远,440000,2,763,511500,"中国,广东省,清远市",113.037,23.7042,qingyuanshi,Qingyuan,Guangdong
130300,河北省,河北,秦皇岛市,秦皇岛,130000,2,335,66000,"中国,河北省,秦皇岛市",119.587,39.9425,qinhuangdaoshi,Qinhuangdao,Hebei
450700,广西省,广西,钦州市,钦州,450000,2,777,535099,"中国,广西壮族自治区,钦州市",108.624,21.9671,qinzhoushi,Qinzhou,Guangxi
230200,黑龙江省,黑龙江,齐齐哈尔市,齐齐哈尔,230000,2,452,161005,"中国,黑龙江省,齐齐哈尔市",123.953,47.3481,qiqihaershi,Qiqihar,Heilongjiang
230900,黑龙江省,黑龙江,七台河市,七台河,230000,2,464,154600,"中国,黑龙江省,七台河市",131.016,45.7713,qitaiheshi,Qitaihe,Heilongjiang
350500,福建省,福建,泉州市,泉州,350000,2,595,362000,"中国,福建省,泉州市",118.589,24.9089,quanzhoushi,Quanzhou,Fujian
530300,云南省,云南,曲靖市,曲靖,530000,2,874,655000,"中国,云南省,曲靖市",103.798,25.5016,qujingshi,Qujing,Yunnan
330800,浙江省,浙江,衢州市,衢州,330000,2,570,324002,"中国,浙江省,衢州市",118.873,28.9417,quzhoushi,Quzhou,Zhejiang
540200,西藏自治区,西藏,日喀则市,日喀则,540000,2,892,857000,"中国,西藏自治区,日喀则市",88.8849,29.2638,rikazeshi,Rikaze,Tibet
371100,山东省,山东,日照市,日照,370000,2,633,276800,"中国,山东省,日照市",119.461,35.4286,rizhaoshi,Rizhao,Shandong
411200,河南省,河南,三门峡市,三门峡,410000,2,398,472000,"中国,河南省,三门峡市",111.194,34.7773,sanmenxiashi,Sanmenxia,Henan
350400,福建省,福建,三明市,三明,350000,2,598,365000,"中国,福建省,三明市",117.635,26.2654,sanmingshi,Sanming,Fujian
460300,海南省,海南,三沙市,三沙,460000,2,898,573199,"中国,海南省,三沙市",112.349,16.831,sanshashi,Sansha,Hainan
460200,海南省,海南,三亚市,三亚,460000,2,898,572000,"中国,海南省,三亚市",109.508,18.2479,sanyashi,Sanya,Hainan
310100,上海市,上海,上海市,上海,310000,2,21,200000,"中国,上海,上海市",121.473,31.2317,shanghaishi,Shanghai,Shanghai
611000,陕西省,陕西,商洛市,商洛,610000,2,914,726000,"中国,陕西省,商洛市",109.94,33.8683,shangluoshi,Shangluo,Shaanxi
411400,河南省,河南,商丘市,商丘,410000,2,370,476000,"中国,河南省,商丘市",115.65,34.4371,shangqiushi,Shangqiu,Henan
361100,江西省,江西,上饶市,上饶,360000,2,793,334000,"中国,江西省,上饶市",117.971,28.4444,shangraoshi,Shangrao,Jiangxi
542200,西藏自治区,西藏,山南地区,山南,540000,2,893,856000,"中国,西藏自治区,山南地区",91.7665,29.236,shannandiqu,Shannan,Tibet
440500,广东省,广东,汕头市,汕头,440000,2,754,515041,"中国,广东省,汕头市",116.708,23.371,shantoushi,Shantou,Guangdong
441500,广东省,广东,汕尾市,汕尾,440000,2,660,516600,"中国,广东省,汕尾市",115.364,22.7745,shanweishi,Shanwei,Guangdong
440200,广东省,广东,韶关市,韶关,440000,2,751,512002,"中国,广东省,韶关市",113.592,24.8013,shaoguanshi,Shaoguan,Guangdong
330600,浙江省,浙江,绍兴市,绍兴,330000,2,575,312000,"中国,浙江省,绍兴市",120.582,29.9971,shaoxingshi,Shaoxing,Zhejiang
430500,湖南省,湖南,邵阳市,邵阳,430000,2,739,422000,"中国,湖南省,邵阳市",111.469,27.2378,shaoyangshi,Shaoyang,Hunan
210100,辽宁省,辽宁,沈阳市,沈阳,210000,2,24,110013,"中国,辽宁省,沈阳市",123.429,41.7968,shenyangshi,Shenyang,Liaoning
440300,广东省,广东,深圳市,深圳,440000,2,755,518035,"中国,广东省,深圳市",114.086,22.547,shenzhenshi,Shenzhen,Guangdong
130100,河北省,河北,石家庄市,石家庄,130000,2,311,50011,"中国,河北省,石家庄市",114.502,38.0455,shijiazhuangshi,Shijiazhuang,Hebei
420300,湖北省,湖北,十堰市,十堰,420000,2,719,442000,"中国,湖北省,十堰市",110.785,32.647,shiyanshi,Shiyan,Hubei
640200,宁夏回族自治区,宁夏,石嘴山市,石嘴山,640000,2,952,753000,"中国,宁夏回族自治区,石嘴山市",106.376,39.0133,shizuishanshi,Shizuishan,Ningxia
230500,黑龙江省,黑龙江,双鸭山市,双鸭山,230000,2,469,155100,"中国,黑龙江省,双鸭山市",131.157,46.6434,shuangyashanshi,Shuangyashan,Heilongjiang
140600,山西省,山西,朔州市,朔州,140000,2,349,38500,"中国,山西省,朔州市",112.433,39.3313,shuozhoushi,Shuozhou,Shanxi
220300,吉林省,吉林,四平市,四平,220000,2,434,136000,"中国,吉林省,四平市",124.371,43.1703,sipingshi,Siping,Jilin
220700,吉林省,吉林,松原市,松原,220000,2,438,138000,"中国,吉林省,松原市",124.824,45.1182,songyuanshi,Songyuan,Jilin
231200,黑龙江省,黑龙江,绥化市,绥化,230000,2,455,152000,"中国,黑龙江省,绥化市",126.993,46.6374,suihuashi,Suihua,Heilongjiang
510900,四川省,四川,遂宁市,遂宁,510000,2,825,629000,"中国,四川省,遂宁市",105.571,30.5133,suiningshi,Suining,Sichuan
421300,湖北省,湖北,随州市,随州,420000,2,722,441300,"中国,湖北省,随州市",113.374,31.7175,suizhoushi,Suizhou,Hubei
321300,江苏省,江苏,宿迁市,宿迁,320000,2,527,223800,"中国,江苏省,宿迁市",118.293,33.9452,suqianshi,Suqian,Jiangsu
341300,安徽省,安徽,宿州市,宿州,340000,2,557,234000,"中国,安徽省,宿州市",116.984,33.6339,suzhoushi,Suzhou,Anhui
320500,江苏省,江苏,苏州市,苏州,320000,2,512,215002,"中国,江苏省,苏州市",120.62,31.2994,suzhoushi,Suzhou,Jiangsu
654200,新疆维吾尔自治区,新疆,塔城地区,塔城,650000,2,901,834700,"中国,新疆维吾尔自治区,塔城地区",82.9857,46.7463,tachengdiqu,Qoqek,Xinjiang
370900,山东省,山东,泰安市,泰安,370000,2,538,271000,"中国,山东省,泰安市",117.129,36.195,taianshi,Taian,Shandong
370900,山东省,山东,泰安市,泰安,370000,2,538,271000,"中国,山东省,泰安市",117.129,36.195,taianshi,Tai'an,Shandong
710100,台湾,台湾,台北市,台北,710000,2,2,1,"中国,台湾,台北市",121.565,25.0378,taibeishi,Taipei,Taiwan
713400,台湾,台湾,台东县,台东,710000,2,89,9,"中国,台湾,台东县",120.916,23,taidongxian,Taitung,Taiwan
710500,台湾,台湾,台南市,台南,710000,2,6,7,"中国,台湾,台南市",120.279,23.1725,tainanshi,Tainan,Taiwan
140100,山西省,山西,太原市,太原,140000,2,351,30082,"中国,山西省,太原市",112.549,37.857,taiyuanshi,Taiyuan,Shanxi
710400,台湾,台湾,台中市,台中,710000,2,4,4,"中国,台湾,台中市",120.679,24.1386,taizhongshi,Taichung,Taiwan
321200,江苏省,江苏,泰州市,泰州,320000,2,523,225300,"中国,江苏省,泰州市",119.915,32.4849,taizhoushi,Taizhou,Jiangsu
331000,浙江省,浙江,台州市,台州,330000,2,576,318000,"中国,浙江省,台州市",121.429,28.6614,taizhoushi,Taizhou,Zhejiang
130200,河北省,河北,唐山市,唐山,130000,2,315,63000,"中国,河北省,唐山市",118.175,39.6351,tangshanshi,Tangshan,Hebei
712300,台湾,台湾,桃园市,桃园,710000,2,3,3,"中国,台湾,桃园县",121.083,25,taoyuanshi,Taoyuan,Taiwan
120100,天津市,天津,天津市,天津,120000,2,22,300000,"中国,天津,天津市",117.19,39.1256,tianjinshi,Tianjin,Tianjin
120100,天津市,天津,天津市,天津,120000,2,22,300000,"中国,天津,天津市",117.19,39.1256,tianjinshi,TIANJINTIENTSIN,Tianjin
620500,甘肃省,甘肃,天水市,天水,620000,2,938,741000,"中国,甘肃省,天水市",105.725,34.5785,tianshuishi,Tianshui,Gansu
211200,辽宁省,辽宁,铁岭市,铁岭,210000,2,24,112000,"中国,辽宁省,铁岭市",123.844,42.2906,tielingshi,Tieling,Liaoning
610200,陕西省,陕西,铜川市,铜川,610000,2,919,727100,"中国,陕西省,铜川市",108.963,34.9089,tongchuanshi,Tongchuan,Shaanxi
220500,吉林省,吉林,通化市,通化,220000,2,435,134001,"中国,吉林省,通化市",125.937,41.7212,tonghuashi,Tonghua,Jilin
150500,内蒙古自治区,内蒙古,通辽市,通辽,150000,2,475,28000,"中国,内蒙古自治区,通辽市",122.263,43.6174,tongliaoshi,Tongliao,Inner Mongolia
340700,安徽省,安徽,铜陵市,铜陵,340000,2,562,244000,"中国,安徽省,铜陵市",117.817,30.9299,tonglingshi,Tongling,Anhui
520600,贵州省,贵州,铜仁市,铜仁,520000,2,856,554300,"中国,贵州省,铜仁市",109.192,27.7183,tongrenshi,Tongren,Guizhou
652100,新疆维吾尔自治区,新疆,吐鲁番地区,吐鲁番,650000,2,995,838000,"中国,新疆维吾尔自治区,吐鲁番地区",89.1841,42.9476,tulufandiqu,Turpan,Xinjiang
370700,山东省,山东,潍坊市,潍坊,370000,2,536,261041,"中国,山东省,潍坊市",119.107,36.7092,weifangshi,Weifang,Shandong
371000,山东省,山东,威海市,威海,370000,2,631,264200,"中国,山东省,威海市",122.116,37.5097,weihaishi,Weihai,Shandong
610500,陕西省,陕西,渭南市,渭南,610000,2,913,714000,"中国,陕西省,渭南市",109.503,34.4994,weinanshi,Weinan,Shaanxi
532600,云南省,云南,文山壮族苗族自治州,文山,530000,2,876,663000,"中国,云南省,文山壮族苗族自治州",104.244,23.3695,wenshanzhuangzumiaozuzizhizhou,Wenshan,Yunnan
330300,浙江省,浙江,温州市,温州,330000,2,577,325000,"中国,浙江省,温州市",120.672,28.0006,wenzhoushi,Wenzhou,Zhejiang
150300,内蒙古自治区,内蒙古,乌海市,乌海,150000,2,473,16000,"中国,内蒙古自治区,乌海市",106.826,39.6737,wuhaishi,Wuhai,Inner Mongolia
420100,湖北省,湖北,武汉市,武汉,420000,2,NULL,430014,"中国,湖北省,武汉市",114.299,30.5844,wuhanshi,Wuhan,Hubei
340200,安徽省,安徽,芜湖市,芜湖,340000,2,551,241000,"中国,安徽省,芜湖市",118.376,31.3263,wuhushi,Wuhu,Anhui
150900,内蒙古自治区,内蒙古,乌兰察布市,乌兰察布,150000,2,474,12000,"中国,内蒙古自治区,乌兰察布市",113.115,41.0341,wulanchabushi,Ulanqab,Inner Mongolia
650100,新疆维吾尔自治区,新疆,乌鲁木齐市,乌鲁木齐,650000,2,991,830002,"中国,新疆维吾尔自治区,乌鲁木齐市",87.6177,43.7928,wulumuqishi,Urumqi,Xinjiang
620600,甘肃省,甘肃,武威市,武威,620000,2,935,733000,"中国,甘肃省,武威市",102.635,37.93,wuweishi,Wuwei,Gansu
320200,江苏省,江苏,无锡市,无锡,320000,2,510,214000,"中国,江苏省,无锡市",120.302,31.5747,wuxishi,Wuxi,Jiangsu
640300,宁夏回族自治区,宁夏,吴忠市,吴忠,640000,2,953,751100,"中国,宁夏回族自治区,吴忠市",106.199,37.9862,wuzhongshi,Wuzhong,Ningxia
450400,广西省,广西,梧州市,梧州,450000,2,774,543002,"中国,广西壮族自治区,梧州市",111.316,23.4723,wuzhoushi,Wuzhou,Guangxi
350200,福建省,福建,厦门市,厦门,350000,2,592,361003,"中国,福建省,厦门市",118.11,24.4905,xiamenshi,Xiamen,Fujian
810100,香港特别行政区,香港,香港岛,香港岛,810000,2,852,999077,"中国,香港特别行政区,香港岛",114.177,22.2664,xianggangdao,Hong Kong Island,Hong Kong
430300,湖南省,湖南,湘潭市,湘潭,430000,2,731,411100,"中国,湖南省,湘潭市",112.925,27.8467,xiangtanshi,Xiangtan,Hunan
433100,湖南省,湖南,湘西土家族苗族自治州,湘西,430000,2,743,416000,"中国,湖南省,湘西土家族苗族自治州",109.74,28.3143,xiangxitujiazumiaozuzizhizhou,Xiangxi,Hunan
420600,湖北省,湖北,襄阳市,襄阳,420000,2,710,441021,"中国,湖北省,襄阳市",112.144,32.0424,xiangyangshi,Xiangyang,Hubei
421200,湖北省,湖北,咸宁市,咸宁,420000,2,715,437000,"中国,湖北省,咸宁市",114.329,29.8328,xianningshi,Xianning,Hubei
610100,陕西省,陕西,西安市,西安,610000,2,29,710003,"中国,陕西省,西安市",108.948,34.2632,xianshi,Xi'an,Shaanxi
610100,陕西省,陕西,西安市,西安,610000,2,29,710003,"中国,陕西省,西安市",108.948,34.2632,xianshi,Xian,Shaanxi
610400,陕西省,陕西,咸阳市,咸阳,610000,2,29,712000,"中国,陕西省,咸阳市",108.705,34.3334,xianyangshi,Xianyang,Shaanxi
420900,湖北省,湖北,孝感市,孝感,420000,2,712,432100,"中国,湖北省,孝感市",113.927,30.9264,xiaoganshi,Xiaogan,Hubei
152500,内蒙古自治区,内蒙古,锡林郭勒盟,锡林郭勒盟,150000,2,479,26000,"中国,内蒙古自治区,锡林郭勒盟",116.091,43.944,xilinguolemeng,Xilin Gol,Inner Mongolia
710800,台湾,台湾,新北市,新北,710000,2,2,2,"中国,台湾,新北市",121.466,25.0124,xinbeishi,New Taipei,Taiwan
152200,内蒙古自治区,内蒙古,兴安盟,兴安盟,150000,2,482,137401,"中国,内蒙古自治区,兴安盟",122.07,46.0763,xinganmeng,Hinggan,Inner Mongolia
130500,河北省,河北,邢台市,邢台,130000,2,319,54001,"中国,河北省,邢台市",114.509,37.0682,xingtaishi,Xingtai,Hebei
630100,青海省,青海,西宁市,西宁,630000,2,971,810000,"中国,青海省,西宁市",101.779,36.6232,xiningshi,Xining,Qinghai
810300,香港特别行政区,香港,新界,新界,810000,2,852,999077,"中国,香港特别行政区,新界",114.202,22.3418,xinjie,New Territories,Hong Kong
410700,河南省,河南,新乡市,新乡,410000,2,373,453000,"中国,河南省,新乡市",113.884,35.3026,xinxiangshi,Xinxiang,Henan
411500,河南省,河南,信阳市,信阳,410000,2,376,464000,"中国,河南省,信阳市",114.075,32.1233,xinyangshi,Xinyang,Henan
360500,江西省,江西,新余市,新余,360000,2,790,338025,"中国,江西省,新余市",114.931,27.8108,xinyushi,Xinyu,Jiangxi
140900,山西省,山西,忻州市,忻州,140000,2,350,34000,"中国,山西省,忻州市",112.734,38.4177,xinzhoushi,Xinzhou,Shanxi
710600,台湾,台湾,新竹市,新竹,710000,2,3,3,"中国,台湾,新竹市",120.969,24.8067,xinzhushi,Hsinchu,Taiwan
712400,台湾,台湾,新竹县,新竹,710000,2,3,3,"中国,台湾,新竹县",121.16,24.6,xinzhuxian,Hsinchu,Taiwan
532800,云南省,云南,西双版纳傣族自治州,西双版纳,530000,2,691,666100,"中国,云南省,西双版纳傣族自治州",100.798,22.0017,xishuangbannadaizuzizhizhou,Xishuangbanna,Yunnan
611100,陕西省,陕西,西咸新区,西咸,610000,2,29,712000,"中国,陕西省,西咸新区",108.811,34.3071,xixianxinqu,Xixian,Shaanxi
341800,安徽省,安徽,宣城市,宣城,340000,2,563,242000,"中国,安徽省,宣城市",118.758,30.9457,xuanchengshi,Xuancheng,Anhui
411000,河南省,河南,许昌市,许昌,410000,2,374,461000,"中国,河南省,许昌市",113.826,34.023,xuchangshi,Xuchang,Henan
320300,江苏省,江苏,徐州市,徐州,320000,2,516,221003,"中国,江苏省,徐州市",117.185,34.2618,xuzhoushi,Xuzhou,Jiangsu
511800,四川省,四川,雅安市,雅安,510000,2,835,625000,"中国,四川省,雅安市",103.001,29.9877,yaanshi,Yaan,Sichuan
511800,四川省,四川,雅安市,雅安,510000,2,835,625000,"中国,四川省,雅安市",103.001,29.9877,yaanshi,Ya'an,Sichuan
610600,陕西省,陕西,延安市,延安,610000,2,911,716000,"中国,陕西省,延安市",109.491,36.5965,yananshi,Yan'an,Shaanxi
610600A,陕西省,陕西,延安市,延安,610000,2,911,716000,"中国,陕西省,延安市",109.491,36.5965,yananshi,Yanan,Shaanxi
222400,吉林省,吉林,延边朝鲜族自治州,延边,220000,2,433,133000,"中国,吉林省,延边朝鲜族自治州",129.513,42.9048,yanbianchaoxianzuzizhizhou,Yanbian,Jilin
320900,江苏省,江苏,盐城市,盐城,320000,2,515,224005,"中国,江苏省,盐城市",120.14,33.3776,yanchengshi,Yancheng,Jiangsu
441700,广东省,广东,阳江市,阳江,440000,2,662,529500,"中国,广东省,阳江市",111.975,21.8592,yangjiangshi,Yangjiang,Guangdong
140300,山西省,山西,阳泉市,阳泉,140000,2,353,45000,"中国,山西省,阳泉市",113.583,37.8612,yangquanshi,Yangquan,Shanxi
321000,江苏省,江苏,扬州市,扬州,320000,2,514,225002,"中国,江苏省,扬州市",119.421,32.3932,yangzhoushi,Yangzhou,Jiangsu
370600,山东省,山东,烟台市,烟台,370000,2,635,264010,"中国,山东省,烟台市",121.391,37.5393,yantaishi,Yantai,Shandong
511500,四川省,四川,宜宾市,宜宾,510000,2,831,644000,"中国,四川省,宜宾市",104.631,28.7602,yibinshi,Yibin,Sichuan
420500,湖北省,湖北,宜昌市,宜昌,420000,2,717,443000,"中国,湖北省,宜昌市",111.291,30.7026,yichangshi,Yichang,Hubei
230700,黑龙江省,黑龙江,伊春市,伊春,230000,2,458,153000,"中国,黑龙江省,伊春市",128.899,47.7248,yichunshi,Yichun,Heilongjiang
360900,江西省,江西,宜春市,宜春,360000,2,795,336000,"中国,江西省,宜春市",114.391,27.8043,yichunshi,Yichun,Jiangxi
712200,台湾,台湾,宜兰县,宜兰,710000,2,3,2,"中国,台湾,宜兰县",121.5,24.6,yilanxian,Yilan,Taiwan
654000,新疆维吾尔自治区,新疆,伊犁哈萨克自治州,伊犁,650000,2,999,835100,"中国,新疆维吾尔自治区,伊犁哈萨克自治州",81.3179,43.9219,yilihasakezizhizhou,Ili,Xinjiang
640100,宁夏回族自治区,宁夏,银川市,银川,640000,2,951,750004,"中国,宁夏回族自治区,银川市",106.278,38.4664,yinchuanshi,Yinchuan,Ningxia
210800,辽宁省,辽宁,营口市,营口,210000,2,417,115003,"中国,辽宁省,营口市",122.235,40.6674,yingkoushi,Yingkou,Liaoning
360600,江西省,江西,鹰潭市,鹰潭,360000,2,701,335000,"中国,江西省,鹰潭市",117.034,28.2386,yingtanshi,Yingtan,Jiangxi
430900,湖南省,湖南,益阳市,益阳,430000,2,737,413000,"中国,湖南省,益阳市",112.355,28.5701,yiyangshi,Yiyang,Hunan
431100,湖南省,湖南,永州市,永州,430000,2,746,425000,"中国,湖南省,永州市",111.608,26.4345,yongzhoushi,Yongzhou,Hunan
430600,湖南省,湖南,岳阳市,岳阳,430000,2,730,414000,"中国,湖南省,岳阳市",113.133,29.3703,yueyangshi,Yueyang,Hunan
450900,广西省,广西,玉林市,玉林,450000,2,775,537000,"中国,广西壮族自治区,玉林市",110.154,22.6314,yulinshi,Yulin,Guangxi
610800,陕西省,陕西,榆林市,榆林,610000,2,912,719000,"中国,陕西省,榆林市",109.741,38.2902,yulinshi,Yulin,Shaanxi
140800,山西省,山西,运城市,运城,140000,2,359,44000,"中国,山西省,运城市",111.004,35.0228,yunchengshi,Yuncheng,Shanxi
445300,广东省,广东,云浮市,云浮,440000,2,766,527300,"中国,广东省,云浮市",112.044,22.9298,yunfushi,Yunfu,Guangdong
712900,台湾,台湾,云林县,云林,710000,2,5,6,"中国,台湾,云林县",120.25,23.75,yunlinxian,Yunlin,Taiwan
632700,青海省,青海,玉树藏族自治州,玉树,630000,2,976,815000,"中国,青海省,玉树藏族自治州",97.0085,33.004,yushucangzuzizhizhou,Yushu,Qinghai
530400,云南省,云南,玉溪市,玉溪,530000,2,877,653100,"中国,云南省,玉溪市",102.544,24.3505,yuxishi,Yuxi,Yunnan
370400,山东省,山东,枣庄市,枣庄,370000,2,632,277101,"中国,山东省,枣庄市",117.558,34.8564,zaozhuangshi,Zaozhuang,Shandong
712700,台湾,台湾,彰化县,彰化,710000,2,4,5,"中国,台湾,彰化县",120.416,24,zhanghuaxian,Changhua,Taiwan
430800,湖南省,湖南,张家界市,张家界,430000,2,744,427000,"中国,湖南省,张家界市",110.48,29.1274,zhangjiajieshi,Zhangjiajie,Hunan
130700,河北省,河北,张家口市,张家口,130000,2,313,75000,"中国,河北省,张家口市",114.884,40.8119,zhangjiakoushi,Zhangjiakou,Hebei
620700,甘肃省,甘肃,张掖市,张掖,620000,2,936,734000,"中国,甘肃省,张掖市",100.455,38.9329,zhangyeshi,Zhangye,Gansu
350600,福建省,福建,漳州市,漳州,350000,2,596,363005,"中国,福建省,漳州市",117.662,24.5109,zhangzhoushi,Zhangzhou,Fujian
440800,广东省,广东,湛江市,湛江,440000,2,759,524047,"中国,广东省,湛江市",110.406,21.1953,zhanjiangshi,Zhanjiang,Guangdong
441200,广东省,广东,肇庆市,肇庆,440000,2,758,526040,"中国,广东省,肇庆市",112.473,23.0515,zhaoqingshi,Zhaoqing,Guangdong
530600,云南省,云南,昭通市,昭通,530000,2,870,657000,"中国,云南省,昭通市",103.717,27.337,zhaotongshi,Zhaotong,Yunnan
410100,河南省,河南,郑州市,郑州,410000,2,371,450000,"中国,河南省,郑州市",113.665,34.758,zhengzhoushi,Zhengzhou,Henan
321100,江苏省,江苏,镇江市,镇江,320000,2,511,212004,"中国,江苏省,镇江市",119.453,32.2044,zhenjiangshi,Zhenjiang,Jiangsu
469000,海南省,海南,直辖县级," 直辖县",460000,2,NULL,NULL,"中国,海南省,直辖县级",109.503,18.7399,zhixiaxianji,zhixiaxian,Hainan
419000,河南省,河南,直辖县级," 直辖县",410000,2,NULL,NULL,"中国,河南省,直辖县级",113.665,34.758,zhixiaxianji,zhixiaxian,Henan
429000,湖北省,湖北,直辖县级," 直辖县",420000,2,NULL,NULL,"中国,湖北省,直辖县级",114.299,30.5844,zhixiaxianji,zhixiaxian,Hubei
659000,新疆维吾尔自治区,新疆,直辖县级," 直辖县",650000,2,NULL,NULL,"中国,新疆维吾尔自治区,直辖县级",91.1322,29.6604,zhixiaxianji,zhixiaxian,Xinjiang
500100,重庆市,重庆,重庆市,重庆,500000,2,23,400000,"中国,重庆,重庆市",106.505,29.5332,zhongqingshi,Chongqing,Chongqing
442000,广东省,广东,中山市,中山,440000,2,760,528403,"中国,广东省,中山市",113.382,22.5211,zhongshanshi,Zhongshan,Guangdong
640500,宁夏回族自治区,宁夏,中卫市,中卫,640000,2,955,751700,"中国,宁夏回族自治区,中卫市",105.19,37.515,zhongweishi,Zhongwei,Ningxia
411600,河南省,河南,周口市,周口,410000,2,394,466000,"中国,河南省,周口市",114.65,33.6204,zhoukoushi,Zhoukou,Henan
331200,浙江省,浙江,舟山群岛新区,舟山新区,330000,2,580,316000,"中国,浙江省,舟山群岛新区",122.318,29.8132,zhoushanqundaoxinqu,Zhoushan,Zhejiang
330900,浙江省,浙江,舟山市,舟山,330000,2,580,316000,"中国,浙江省,舟山市",122.107,30.016,zhoushanshi,Zhoushan,Zhejiang
440400,广东省,广东,珠海市,珠海,440000,2,756,519000,"中国,广东省,珠海市",113.553,22.2559,zhuhaishi,Zhuhai,Guangdong
411700,河南省,河南,驻马店市,驻马店,410000,2,396,463000,"中国,河南省,驻马店市",114.025,32.9802,zhumadianshi,Zhumadian,Henan
430200,湖南省,湖南,株洲市,株洲,430000,2,731,412000,"中国,湖南省,株洲市",113.152,27.8358,zhuzhoushi,Zhuzhou,Hunan
370300,山东省,山东,淄博市,淄博,370000,2,533,255039,"中国,山东省,淄博市",118.048,36.8149,ziboshi,Zibo,Shandong
510300,四川省,四川,自贡市,自贡,510000,2,813,643000,"中国,四川省,自贡市",104.773,29.3528,zigongshi,Zigong,Sichuan
512000,四川省,四川,资阳市,资阳,510000,2,28,641300,"中国,四川省,资阳市",104.642,30.1222,ziyangshi,Ziyang,Sichuan
520300,贵州省,贵州,遵义市,遵义,520000,2,852,563000,"中国,贵州省,遵义市",106.937,27.7066,zunyishi,Zunyi,Guizhou
